STARLINK-31440          
1 58999U 24036B   24061.66667824 -.01209448  00000+0 -71851-2 0  9996
2 58999  53.1669 267.6641 0001202  94.6559  68.8236 15.79991934  2054
STARLINK-31529          
1 59000U 24036C   24061.66667824 -.01223266  00000+0 -72709-2 0  9997
2 59000  53.1669 267.6597 0000852  89.3249  76.3293 15.80015963  2323
STARLINK-31525          
1 59001U 24036D   24061.66667824 -.01230553  00000+0 -73075-2 0  9992
2 59001  53.1668 267.6558 0000938  91.0696  76.5018 15.80051553  2323
STARLINK-31431          
1 59002U 24036E   24061.66667824 -.01241033  00000+0 -73640-2 0  9996
2 59002  53.1670 267.6519 0001190  83.2856  86.1933 15.80089629  2324
STARLINK-31429          
1 59003U 24036F   24061.66667824 -.01250201  00000+0 -74142-2 0  9992
2 59003  53.1671 267.6479 0000926  79.8406  91.5708 15.80125672  2339
STARLINK-31435          
1 59004U 24036G   24061.66667824 -.01261927  00000+0 -74828-2 0  9991
2 59004  53.1668 267.6436 0001185  80.9235  92.5831 15.80152456  2338
STARLINK-31484          
1 59005U 24036H   24061.66667824 -.01272750  00000+0 -75448-2 0  9997
2 59005  53.1667 267.6393 0000738  91.9196  83.5388 15.80188379  2386
STARLINK-31450          
1 59006U 24036J   24062.16667824 -.01326825  00000+0 -82328-2 0  9992
2 59006  53.1658 265.1316 0001183  92.4090  51.7980 15.78860023  2407
STARLINK-31456          
1 59007U 24036K   24062.16667824 -.01293356  00000+0 -81754-2 0  9997
2 59007  53.1657 265.1360 0001166  92.8641  49.3400 15.78836917  2408
STARLINK-31460          
1 59008U 24036L   24062.16667824 -.01338066  00000+0 -83010-2 0  9993
2 59008  53.1657 265.1275 0001208  98.4011  47.7938 15.78885566  2406
STARLINK-31488          
1 59009U 24036M   24062.16667824 -.01347958  00000+0 -83617-2 0  9997
2 59009  53.1655 265.1233 0001219  96.9754  51.2478 15.78906312  2400
STARLINK-31528          
1 59010U 24036N   24062.16667824 -.01365866  00000+0 -84688-2 0  9996
2 59010  53.1655 265.1146 0001365  95.3825  56.8701 15.78949787  2402
STARLINK-31491          
1 59011U 24036P   24062.16667824 -.01354470  00000+0 -83943-2 0  9999
2 59011  53.1653 265.1193 0001277  88.3549  61.7610 15.78938621  2409
STARLINK-31465          
1 59012U 24036Q   24062.16667824 -.01378213  00000+0 -85497-2 0  9997
2 59012  53.1651 265.1102 0001141  93.7513  60.5932 15.78964926  2400
STARLINK-31389          
1 59013U 24036R   24062.16667824 -.01387120  00000+0 -86014-2 0  9991
2 59013  53.1652 265.1061 0001346  89.0796  67.2483 15.78989156  2412
STARLINK-31454          
1 59014U 24036S   24062.16667824 -.01400547  00000+0 -86926-2 0  9993
2 59014  53.1652 265.1017 0000983  86.2310  72.2469 15.78999078  2404
STARLINK-31521          
1 59015U 24036T   24062.16667824 -.01412683  00000+0 -87722-2 0  9993
2 59015  53.1653 265.0976 0001195  94.9603  65.6488 15.79009939  2402
STARLINK-31526          
1 59016U 24036U   24061.66667824 -.00195475  00000+0 -71712-3 0  9997
2 59016  53.1659 267.5294 0000577  59.8136 168.9602 15.87993275  2323
STARLINK-31406          
1 59017U 24036V   24062.16667824 -.01434469  00000+0 -89077-2 0  9996
2 59017  53.1653 265.0895 0001030  86.9567  77.6819 15.79053798  2405
STARLINK-31527          
1 59018U 24036W   24062.16667824 -.01445386  00000+0 -89778-2 0  9995
2 59018  53.1653 265.0850 0001173  87.7140  79.0110 15.79068103  2407
STARLINK-31436          
1 59019U 24036X   24062.16667824 -.01448455  00000+0 -89898-2 0  9999
2 59019  53.1654 265.0811 0000902  82.5122  86.1426 15.79094136  2402
TJS-11                  
1 59020U 24037A   24055.07497543 -.00000578  00000+0  00000+0 0  9996
2 59020  16.4937 345.4302 7296716 190.9059 112.1548  2.28002547    13
CZ-5 R/B                
1 59021U 24037B   24057.90737415  .00003262  00000+0  70824-3 0  9993
2 59021  16.5039 344.0421 7150810 192.6370 129.7628  2.45330815    85
STARLINK-30996          
1 59023U 24038A   24061.66667824 -.01190495  42165-3 -32028-2 0  9993
2 59023  43.0057 234.3688 0001655 272.6967 172.1950 15.93487194  1894
STARLINK-31006          
1 59024U 24038B   24062.25001157  .00669870  19994-3  14867-2 0  9991
2 59024  43.0062 230.7000 0003913 251.2411 316.1574 15.97096731  1984
STARLINK-31178          
1 59025U 24038C   24061.66667824 -.01199454  42826-3 -31954-2 0  9990
2 59025  43.0055 234.3634 0001592 265.0277 182.0129 15.93673798  1632
STARLINK-31227          
1 59026U 24038D   24061.66667824 -.01203368  43118-3 -31916-2 0  9994
2 59026  43.0055 234.3608 0001428 287.6428 160.4108 15.93758656  1892
STARLINK-30863          
1 59027U 24038E   24061.66667824 -.01224084  44562-3 -32172-2 0  9992
2 59027  43.0056 234.3555 0001230 272.3277 177.7242 15.93933185  1790
STARLINK-31206          
1 59028U 24038F   24061.66667824 -.01218386  44148-3 -32156-2 0  9993
2 59028  43.0056 234.3582 0001647 274.6028 174.4861 15.93852814  1916
STARLINK-31224          
1 59029U 24038G   24061.66667824 -.01238214  45557-3 -32352-2 0  9999
2 59029  43.0054 234.3526 0001708 258.3854 192.8486 15.94044822  1894
