OBJECT_NAME,OBJECT_ID,EPOCH,MEAN_MOTION,ECCENTRICITY,INCLINATION,RA_OF_ASC_NODE,ARG_OF_PERICENTER,MEAN_ANOMALY,EPHEMERIS_TYPE,CLASSIFICATION_TYPE,NORAD_CAT_ID,ELEMENT_SET_NO,REV_AT_EPOCH,BSTAR,MEAN_MOTION_DOT,MEAN_MOTION_DDOT
STARLINK-31440,2024-036B,2024-03-01T16:00:00.999936,15.79991934,0.0001202,53.1669,267.6641,94.6559,68.8236,0,U,58999,999,205,-0.0071851,-0.01209448,0
STARLINK-31529,2024-036C,2024-03-01T16:00:00.999936,15.80015963,8.52e-05,53.1669,267.6597,89.3249,76.3293,0,U,59000,999,232,-0.0072709,-0.01223266,0
STARLINK-31525,2024-036D,2024-03-01T16:00:00.999936,15.80051553,9.38e-05,53.1668,267.6558,91.0696,76.5018,0,U,59001,999,232,-0.0073075,-0.01230553,0
STARLINK-31431,2024-036E,2024-03-01T16:00:00.999936,15.80089629,0.000119,53.167,267.6519,83.2856,86.1933,0,U,59002,999,232,-0.007364,-0.01241033,0
STARLINK-31429,2024-036F,2024-03-01T16:00:00.999936,15.80125672,9.26e-05,53.1671,267.6479,79.8406,91.5708,0,U,59003,999,233,-0.0074142,-0.01250201,0
STARLINK-31435,2024-036G,2024-03-01T16:00:00.999936,15.80152456,0.0001185,53.1668,267.6436,80.9235,92.5831,0,U,59004,999,233,-0.0074828,-0.01261927,0
STARLINK-31484,2024-036H,2024-03-01T16:00:00.999936,15.80188379,7.38e-05,53.1667,267.6393,91.9196,83.5388,0,U,59005,999,238,-0.0075448,-0.0127275,0
STARLINK-31450,2024-036J,2024-03-02T04:00:00.999936,15.78860023,0.0001183,53.1658,265.1316,92.409,51.798,0,U,59006,999,240,-0.0082328,-0.01326825,0
STARLINK-31456,2024-036K,2024-03-02T04:00:00.999936,15.78836917,0.0001166,53.1657,265.136,92.8641,49.34,0,U,59007,999,240,-0.0081754,-0.01293356,0
STARLINK-31460,2024-036L,2024-03-02T04:00:00.999936,15.78885566,0.0001208,53.1657,265.1275,98.4011,47.7938,0,U,59008,999,240,-0.008301,-0.01338066,0
STARLINK-31488,2024-036M,2024-03-02T04:00:00.999936,15.78906312,0.0001219,53.1655,265.1233,96.9754,51.2478,0,U,59009,999,240,-0.0083617,-0.01347958,0
STARLINK-31528,2024-036N,2024-03-02T04:00:00.999936,15.78949787,0.0001365,53.1655,265.1146,95.3825,56.8701,0,U,59010,999,240,-0.0084688,-0.01365866,0
STARLINK-31491,2024-036P,2024-03-02T04:00:00.999936,15.78938621,0.0001277,53.1653,265.1193,88.3549,61.761,0,U,59011,999,240,-0.0083943,-0.0135447,0
STARLINK-31465,2024-036Q,2024-03-02T04:00:00.999936,15.78964926,0.0001141,53.1651,265.1102,93.7513,60.5932,0,U,59012,999,240,-0.0085497,-0.01378213,0
STARLINK-31389,2024-036R,2024-03-02T04:00:00.999936,15.78989156,0.0001346,53.1652,265.1061,89.0796,67.2483,0,U,59013,999,241,-0.0086014,-0.0138712,0
STARLINK-31454,2024-036S,2024-03-02T04:00:00.999936,15.78999078,9.83e-05,53.1652,265.1017,86.231,72.2469,0,U,59014,999,240,-0.0086926,-0.01400547,0
STARLINK-31521,2024-036T,2024-03-02T04:00:00.999936,15.79009939,0.0001195,53.1653,265.0976,94.9603,65.6488,0,U,59015,999,240,-0.0087722,-0.01412683,0
STARLINK-31526,2024-036U,2024-03-01T16:00:00.999936,15.87993275,5.77e-05,53.1659,267.5294,59.8136,168.9602,0,U,59016,999,232,-0.00071712,-0.00195475,0
STARLINK-31406,2024-036V,2024-03-02T04:00:00.999936,15.79053798,0.000103,53.1653,265.0895,86.9567,77.6819,0,U,59017,999,240,-0.0089077,-0.01434469,0
STARLINK-31527,2024-036W,2024-03-02T04:00:00.999936,15.79068103,0.0001173,53.1653,265.085,87.714,79.011,0,U,59018,999,240,-0.0089778,-0.01445386,0
STARLINK-31436,2024-036X,2024-03-02T04:00:00.999936,15.79094136,9.02e-05,53.1654,265.0811,82.5122,86.1426,0,U,59019,999,240,-0.0089898,-0.01448455,0
TJS-11,2024-037A,2024-02-24T01:47:57.877152,2.28002547,0.7296716,16.4937,345.4302,190.9059,112.1548,0,U,59020,999,1,0,-5.78e-06,0
CZ-5 R/B,2024-037B,2024-02-26T21:46:37.126560,2.45330815,0.715081,16.5039,344.0421,192.637,129.7628,0,U,59021,999,8,0.00070824,3.262e-05,0
STARLINK-30996,2024-038A,2024-03-01T16:00:00.999936,15.93487194,0.0001655,43.0057,234.3688,272.6967,172.195,0,U,59023,999,189,-0.0032028,-0.01190495,0.00042165
STARLINK-31006,2024-038B,2024-03-02T06:00:00.999648,15.97096731,0.0003913,43.0062,230.7,251.2411,316.1574,0,U,59024,999,198,0.0014867,0.0066987,0.00019994
STARLINK-31178,2024-038C,2024-03-01T16:00:00.999936,15.93673798,0.0001592,43.0055,234.3634,265.0277,182.0129,0,U,59025,999,163,-0.0031954,-0.01199454,0.00042826
STARLINK-31227,2024-038D,2024-03-01T16:00:00.999936,15.93758656,0.0001428,43.0055,234.3608,287.6428,160.4108,0,U,59026,999,189,-0.0031916,-0.01203368,0.00043118
STARLINK-30863,2024-038E,2024-03-01T16:00:00.999936,15.93933185,0.000123,43.0056,234.3555,272.3277,177.7242,0,U,59027,999,179,-0.0032172,-0.01224084,0.00044562
STARLINK-31206,2024-038F,2024-03-01T16:00:00.999936,15.93852814,0.0001647,43.0056,234.3582,274.6028,174.4861,0,U,59028,999,191,-0.0032156,-0.01218386,0.00044148
STARLINK-31224,2024-038G,2024-03-01T16:00:00.999936,15.94044822,0.0001708,43.0054,234.3526,258.3854,192.8486,0,U,59029,999,189,-0.0032352,-0.01238214,0.00045557
